{
  "type": "FeatureCollection",
  "features": [
    {
      "type": "Feature",
      "properties": {
        "norad_id": 67152,
        "name": "KUIPER-00247",
        "group": "last-30-days",
        "lat": 47.932324282415536,
        "lon": 119.9068137085449,
        "alt_km": 456.4885876395956,
        "timestamp": "2025-12-26T09:30:52.346016+00:00",
        "meta_object_name": "KUIPER-00247",
        "meta_object_id": "2025-301V",
        "meta_epoch": "2025-12-26T02:57:11.061216",
        "meta_mean_motion": 15.33986197,
        "meta_eccentricity": 0.0011194,
        "meta_inclination": 51.8631,
        "meta_ra_of_asc_node": 60.7023,
        "meta_arg_of_pericenter": 153.4889,
        "meta_mean_anomaly": 206.6671,
        "meta_ephemeris_type": 0,
        "meta_classification_type": "U",
        "meta_norad_cat_id": 67152,
        "meta_element_set_no": 999,
        "meta_rev_at_epoch": 242,
        "meta_bstar": 0.00060115,
        "meta_mean_motion_dot": 0.00019775,
        "meta_mean_motion_ddot": 0,
        "tle_line1": "1 67152U 25301V   25360.12304469  .00019775  00000+0  60115-3 0  9991",
        "tle_line2": "2 67152  51.8631  60.7023 0011194 153.4889 206.6671 15.33986197  2427"
      },
      "geometry": {
        "type": "Point",
        "coordinates": [
          119.9068137085449,
          47.932324282415536
        ]
      }
    },
    {
      "type": "Feature",
      "properties": {
        "norad_id": 67153,
        "name": "KUIPER-00248",
        "group": "last-30-days",
        "lat": 51.550021439925146,
        "lon": 157.70404445266473,
        "alt_km": 450.7732887272323,
        "timestamp": "2025-12-26T09:30:52.346026+00:00",
        "meta_object_name": "KUIPER-00248",
        "meta_object_id": "2025-301W",
        "meta_epoch": "2025-12-26T02:51:01.072224",
        "meta_mean_motion": 15.34669084,
        "meta_eccentricity": 0.0008728,
        "meta_inclination": 51.8679,
        "meta_ra_of_asc_node": 60.6746,
        "meta_arg_of_pericenter": 141.771,
        "meta_mean_anomaly": 218.3896,
        "meta_ephemeris_type": 0,
        "meta_classification_type": "U",
        "meta_norad_cat_id": 67153,
        "meta_element_set_no": 999,
        "meta_rev_at_epoch": 259,
        "meta_bstar": 0.00062539,
        "meta_mean_motion_dot": 0.00021033,
        "meta_mean_motion_ddot": 0,
        "tle_line1": "1 67153U 25301W   25360.11876241  .00021033  00000+0  62539-3 0  9995",
        "tle_line2": "2 67153  51.8679  60.6746 0008728 141.7710 218.3896 15.34669084  2594"
      },
      "geometry": {
        "type": "Point",
        "coordinates": [
          157.70404445266473,
          51.550021439925146
        ]
      }
    },
    {
      "type": "Feature",
      "properties": {
        "norad_id": 67154,
        "name": "KUIPER-00249",
        "group": "last-30-days",
        "lat": 50.07075760575459,
        "lon": 169.496730907268,
        "alt_km": 450.07745925927975,
        "timestamp": "2025-12-26T09:30:52.346037+00:00",
        "meta_object_name": "KUIPER-00249",
        "meta_object_id": "2025-301X",
        "meta_epoch": "2025-12-26T02:49:04.949760",
        "meta_mean_motion": 15.34800361,
        "meta_eccentricity": 0.00082,
        "meta_inclination": 51.8649,
        "meta_ra_of_asc_node": 60.6669,
        "meta_arg_of_pericenter": 138.1455,
        "meta_mean_anomaly": 222.0159,
        "meta_ephemeris_type": 0,
        "meta_classification_type": "U",
        "meta_norad_cat_id": 67154,
        "meta_element_set_no": 999,
        "meta_rev_at_epoch": 242,
        "meta_bstar": 0.0010291,
        "meta_mean_motion_dot": 0.00035066,
        "meta_mean_motion_ddot": 0,
        "tle_line1": "1 67154U 25301X   25360.11741840  .00035066  00000+0  10291-2 0  9990",
        "tle_line2": "2 67154  51.8649  60.6669 0008200 138.1455 222.0159 15.34800361  2428"
      },
      "geometry": {
        "type": "Point",
        "coordinates": [
          169.496730907268,
          50.07075760575459
        ]
      }
    },
    {
      "type": "Feature",
      "properties": {
        "norad_id": 67155,
        "name": "KUIPER-00250",
        "group": "last-30-days",
        "lat": 42.70215287721971,
        "lon": -167.17282718631873,
        "alt_km": 449.8690762316728,
        "timestamp": "2025-12-26T09:30:52.346048+00:00",
        "meta_object_name": "KUIPER-00250",
        "meta_object_id": "2025-301Y",
        "meta_epoch": "2025-12-26T01:10:55.265664",
        "meta_mean_motion": 15.35338912,
        "meta_eccentricity": 0.0006217,
        "meta_inclination": 51.8712,
        "meta_ra_of_asc_node": 60.959,
        "meta_arg_of_pericenter": 127.615,
        "meta_mean_anomaly": 232.5401,
        "meta_ephemeris_type": 0,
        "meta_classification_type": "U",
        "meta_norad_cat_id": 67155,
        "meta_element_set_no": 999,
        "meta_rev_at_epoch": 244,
        "meta_bstar": 0.00076102,
        "meta_mean_motion_dot": 0.00026242,
        "meta_mean_motion_ddot": 0,
        "tle_line1": "1 67155U 25301Y   25360.04925076  .00026242  00000+0  76102-3 0  9998",
        "tle_line2": "2 67155  51.8712  60.9590 0006217 127.6150 232.5401 15.35338912  2444"
      },
      "geometry": {
        "type": "Point",
        "coordinates": [
          -167.17282718631873,
          42.70215287721971
        ]
      }
    },
    {
      "type": "Feature",
      "properties": {
        "norad_id": 67156,
        "name": "KUIPER-00251",
        "group": "last-30-days",
        "lat": 51.050063395947255,
        "lon": 162.945119148187,
        "alt_km": 449.7881892817486,
        "timestamp": "2025-12-26T09:30:52.346060+00:00",
        "meta_object_name": "KUIPER-00251",
        "meta_object_id": "2025-301Z",
        "meta_epoch": "2025-12-26T02:50:11.349888",
        "meta_mean_motion": 15.34776085,
        "meta_eccentricity": 0.0008832,
        "meta_inclination": 51.8656,
        "meta_ra_of_asc_node": 60.6714,
        "meta_arg_of_pericenter": 135.7934,
        "meta_mean_anomaly": 224.3758,
        "meta_ephemeris_type": 0,
        "meta_classification_type": "U",
        "meta_norad_cat_id": 67156,
        "meta_element_set_no": 999,
        "meta_rev_at_epoch": 261,
        "meta_bstar": 0.0010409,
        "meta_mean_motion_dot": 0.00035453,
        "meta_mean_motion_ddot": 0,
        "tle_line1": "1 67156U 25301Z   25360.11818692  .00035453  00000+0  10409-2 0  9993",
        "tle_line2": "2 67156  51.8656  60.6714 0008832 135.7934 224.3758 15.34776085  2611"
      },
      "geometry": {
        "type": "Point",
        "coordinates": [
          162.945119148187,
          51.050063395947255
        ]
      }
    },
    {
      "type": "Feature",
      "properties": {
        "norad_id": 67157,
        "name": "KUIPER-00252",
        "group": "last-30-days",
        "lat": 51.28335479793597,
        "lon": 137.89358216770842,
        "alt_km": 453.08049617895995,
        "timestamp": "2025-12-26T09:30:52.346070+00:00",
        "meta_object_name": "KUIPER-00252",
        "meta_object_id": "2025-301AA",
        "meta_epoch": "2025-12-26T04:27:55.006848",
        "meta_mean_motion": 15.34298603,
        "meta_eccentricity": 0.0009697,
        "meta_inclination": 51.8658,
        "meta_ra_of_asc_node": 60.3768,
        "meta_arg_of_pericenter": 146.5603,
        "meta_mean_anomaly": 213.5996,
        "meta_ephemeris_type": 0,
        "meta_classification_type": "U",
        "meta_norad_cat_id": 67157,
        "meta_element_set_no": 999,
        "meta_rev_at_epoch": 243,
        "meta_bstar": 0.00066386,
        "meta_mean_motion_dot": 0.00022095,
        "meta_mean_motion_ddot": 0,
        "tle_line1": "1 67157U 25301AA  25360.18605332  .00022095  00000+0  66386-3 0  9990",
        "tle_line2": "2 67157  51.8658  60.3768 0009697 146.5603 213.5996 15.34298603  2432"
      },
      "geometry": {
        "type": "Point",
        "coordinates": [
          137.89358216770842,
          51.28335479793597
        ]
      }
    },
    {
      "type": "Feature",
      "properties": {
        "norad_id": 67158,
        "name": "KUIPER-00261",
        "group": "last-30-days",
        "lat": 39.38293272802755,
        "lon": -160.87942159844079,
        "alt_km": 450.55533536782696,
        "timestamp": "2025-12-26T09:30:52.346079+00:00",
        "meta_object_name": "KUIPER-00261",
        "meta_object_id": "2025-301AB",
        "meta_epoch": "2025-12-26T01:09:26.213184",
        "meta_mean_motion": 15.35405426,
        "meta_eccentricity": 0.0005613,
        "meta_inclination": 51.8696,
        "meta_ra_of_asc_node": 60.9535,
        "meta_arg_of_pericenter": 125.8665,
        "meta_mean_anomaly": 234.2842,
        "meta_ephemeris_type": 0,
        "meta_classification_type": "U",
        "meta_norad_cat_id": 67158,
        "meta_element_set_no": 999,
        "meta_rev_at_epoch": 241,
        "meta_bstar": 0.00067299,
        "meta_mean_motion_dot": 0.000232,
        "meta_mean_motion_ddot": 0,
        "tle_line1": "1 67158U 25301AB  25360.04822006  .00023200  00000+0  67299-3 0  9998",
        "tle_line2": "2 67158  51.8696  60.9535 0005613 125.8665 234.2842 15.35405426  2417"
      },
      "geometry": {
        "type": "Point",
        "coordinates": [
          -160.87942159844079,
          39.38293272802755
        ]
      }
    }
  ]
}